{
  "norad_id": 66242,
  "name": "STARLINK-35480",
  "history": [
    {
      "epoch": "2026-03-28T16:58:03.812448Z",
      "apogee_km": 475.99699192875414,
      "perigee_km": 474.3527453452307,
      "latitude_deg": -1.9652459857136151e-07,
      "longitude_deg": 115.24143907003294,
      "height_km": 476.03262578294647,
      "semi_major_axis_km": 6853.311868636993,
      "eccentricity": 0.00011996,
      "inclination_deg": 53.1591,
      "raan_deg": 195.8809,
      "arg_perigee_deg": 87.1885,
      "mean_anomaly_deg": 272.9253,
      "mean_motion_rev_day": 15.30213464
    }
  ]
}